{"type": "FeatureCollection", "features": [ {"type": "Feature", "properties": {"norad_id": 34400, "name": "COSMOS 2251 DEB", "group": "cosmos-2251-debris", "lat": 47.21064277606156, "lon": 59.11380787649066, "alt_km": 418.49203810242125, "timestamp": "2025-12-04T17:48:40.559082+00:00", "meta": {"OBJECT_NAME": "COSMOS 2251 DEB", "OBJECT_ID": "1993-036QR", "EPOCH": "2025-12-04T06:44:48.726528", "MEAN_MOTION": 15.48895766, "ECCENTRICITY": 0.00074346, "INCLINATION": 73.969, "RA_OF_ASC_NODE": 42.0304, "ARG_OF_PERICENTER": 270.0264, "MEAN_ANOMALY": 90.0097, "EPHEMERIS_TYPE": 0, "CLASSIFICATION_TYPE": "U", "NORAD_CAT_ID": 34400, "ELEMENT_SET_NO": 999, "REV_AT_EPOCH": 89843, "BSTAR": 0.0063098908, "MEAN_MOTION_DOT": 0.00356603, "MEAN_MOTION_DDOT": 0}, "tle": {"line1": "1 34400U 93036QR  25338.28111952  .00356603  00000+0  63099-2 0  9993", "line2": "2 34400  73.9690  42.0304 0007434 270.0264  90.0097 15.48895766898435"}}, "geometry": {"type": "Point", "coordinates": [59.11380787649066, 47.21064277606156]}}, {"type": "Feature", "properties": {"norad_id": 34409, "name": "COSMOS 2251 DEB", "group": "cosmos-2251-debris", "lat": 56.98361117233047, "lon": 115.93997261710209, "alt_km": 684.3097692708252, "timestamp": "2025-12-04T17:48:40.559093+00:00", "meta": {"OBJECT_NAME": "COSMOS 2251 DEB", "OBJECT_ID": "1993-036RA", "EPOCH": "2025-12-04T07:41:15.178848", "MEAN_MOTION": 14.57995673, "ECCENTRICITY": 0.00794801, "INCLINATION": 74.0627, "RA_OF_ASC_NODE": 322.8281, "ARG_OF_PERICENTER": 39.45, "MEAN_ANOMALY": 25.758, "EPHEMERIS_TYPE": 0, "CLASSIFICATION_TYPE": "U", "NORAD_CAT_ID": 34409, "ELEMENT_SET_NO": 999, "REV_AT_EPOCH": 89070, "BSTAR": 0.00043923724, "MEAN_MOTION_DOT": 2.077e-05, "MEAN_MOTION_DDOT": 0}, "tle": {"line1": "1 34409U 93036RA  25338.32031457  .00002077  00000+0  43924-3 0  9997", "line2": "2 34409  74.0627 322.8281 0079480  39.4500  25.7580 14.57995673890700"}}, "geometry": {"type": "Point", "coordinates": [115.93997261710209, 56.98361117233047]}}, {"type": "Feature", "properties": {"norad_id": 34410, "name": "COSMOS 2251 DEB", "group": "cosmos-2251-debris", "lat": -39.49379217212502, "lon": 112.68615021444134, "alt_km": 521.6766393460766, "timestamp": "2025-12-04T17:48:40.559103+00:00", "meta": {"OBJECT_NAME": "COSMOS 2251 DEB", "OBJECT_ID": "1993-036RB", "EPOCH": "2025-12-03T22:08:19.253184", "MEAN_MOTION": 15.17562106, "ECCENTRICITY": 0.0020723, "INCLINATION": 73.7392, "RA_OF_ASC_NODE": 280.509, "ARG_OF_PERICENTER": 121.9342, "MEAN_ANOMALY": 302.742, "EPHEMERIS_TYPE": 0, "CLASSIFICATION_TYPE": "U", "NORAD_CAT_ID": 34410, "ELEMENT_SET_NO": 999, "REV_AT_EPOCH": 89640, "BSTAR": 0.004684, "MEAN_MOTION_DOT": 0.00095812, "MEAN_MOTION_DDOT": 0}, "tle": {"line1": "1 34410U 93036RB  25337.92244506  .00095812  00000+0  46840-2 0  9993", "line2": "2 34410  73.7392 280.5090 0020723 121.9342 302.7420 15.17562106896404"}}, "geometry": {"type": "Point", "coordinates": [112.68615021444134, -39.49379217212502]}}, {"type": "Feature", "properties": {"norad_id": 34412, "name": "COSMOS 2251 DEB", "group": "cosmos-2251-debris", "lat": -70.21667983760662, "lon": -73.5250326777997, "alt_km": 862.5348736121332, "timestamp": "2025-12-04T17:48:40.559114+00:00", "meta": {"OBJECT_NAME": "COSMOS 2251 DEB", "OBJECT_ID": "1993-036RD", "EPOCH": "2025-12-03T10:39:06.052320", "MEAN_MOTION": 14.46988265, "ECCENTRICITY": 0.01871303, "INCLINATION": 73.9477, "RA_OF_ASC_NODE": 342.0894, "ARG_OF_PERICENTER": 79.4118, "MEAN_ANOMALY": 282.8057, "EPHEMERIS_TYPE": 0, "CLASSIFICATION_TYPE": "U", "NORAD_CAT_ID": 34412, "ELEMENT_SET_NO": 999, "REV_AT_EPOCH": 87516, "BSTAR": 0.0011167847, "MEAN_MOTION_DOT": 5.031e-05, "MEAN_MOTION_DDOT": 0}, "tle": {"line1": "1 34412U 93036RD  25337.44382005  .00005031  00000+0  11168-2 0  9998", "line2": "2 34412  73.9477 342.0894 0187130  79.4118 282.8057 14.46988265875165"}}, "geometry": {"type": "Point", "coordinates": [-73.5250326777997, -70.21667983760662]}}, {"type": "Feature", "properties": {"norad_id": 34413, "name": "COSMOS 2251 DEB", "group": "cosmos-2251-debris", "lat": -31.065160109976148, "lon": 109.33500170437439, "alt_km": 853.8170765663781, "timestamp": "2025-12-04T17:48:40.559124+00:00", "meta": {"OBJECT_NAME": "COSMOS 2251 DEB", "OBJECT_ID": "1993-036RE", "EPOCH": "2025-12-03T07:48:21.134304", "MEAN_MOTION": 14.28961442, "ECCENTRICITY": 0.0090642, "INCLINATION": 74.0314, "RA_OF_ASC_NODE": 281.9739, "ARG_OF_PERICENTER": 0.215, "MEAN_ANOMALY": 126.7484, "EPHEMERIS_TYPE": 0, "CLASSIFICATION_TYPE": "U", "NORAD_CAT_ID": 34413, "ELEMENT_SET_NO": 999, "REV_AT_EPOCH": 86996, "BSTAR": 0.0025562, "MEAN_MOTION_DOT": 6.734e-05, "MEAN_MOTION_DDOT": 0}, "tle": {"line1": "1 34413U 93036RE  25337.32524461  .00006734  00000+0  25562-2 0  9994", "line2": "2 34413  74.0314 281.9739 0090642   0.2150 126.7484 14.28961442869965"}}, "geometry": {"type": "Point", "coordinates": [109.33500170437439, -31.065160109976148]}}, {"type": "Feature", "properties": {"norad_id": 34420, "name": "COSMOS 2251 DEB", "group": "cosmos-2251-debris", "lat": -69.9988904839481, "lon": -8.698685346181867, "alt_km": 600.8578737053422, "timestamp": "2025-12-04T17:48:40.559134+00:00", "meta": {"OBJECT_NAME": "COSMOS 2251 DEB", "OBJECT_ID": "1993-036RM", "EPOCH": "2025-12-04T04:22:05.073024", "MEAN_MOTION": 14.68257213, "ECCENTRICITY": 0.01069413, "INCLINATION": 74.032, "RA_OF_ASC_NODE": 120.5115, "ARG_OF_PERICENTER": 243.6031, "MEAN_ANOMALY": 294.3695, "EPHEMERIS_TYPE": 0, "CLASSIFICATION_TYPE": "U", "NORAD_CAT_ID": 34420, "ELEMENT_SET_NO": 999, "REV_AT_EPOCH": 89644, "BSTAR": 0.00042096273, "MEAN_MOTION_DOT": 2.611e-05, "MEAN_MOTION_DDOT": 0}, "tle": {"line1": "1 34420U 93036RM  25338.18200316  .00002611  00000+0  42096-3 0  9999", "line2": "2 34420  74.0320 120.5115 0106941 243.6031 294.3695 14.68257213896444"}}, "geometry": {"type": "Point", "coordinates": [-8.698685346181867, -69.9988904839481]}}, {"type": "Feature", "properties": {"norad_id": 34425, "name": "COSMOS 2251 DEB", "group": "cosmos-2251-debris", "lat": 16.610722325543247, "lon": -115.05940017557373, "alt_km": 672.1354252521605, "timestamp": "2025-12-04T17:48:40.559145+00:00", "meta": {"OBJECT_NAME": "COSMOS 2251 DEB", "OBJECT_ID": "1993-036RS", "EPOCH": "2025-12-04T07:12:56.439072", "MEAN_MOTION": 14.62048333, "ECCENTRICITY": 0.00254368, "INCLINATION": 74.0207, "RA_OF_ASC_NODE": 70.6899, "ARG_OF_PERICENTER": 198.9722, "MEAN_ANOMALY": 161.0499, "EPHEMERIS_TYPE": 0, "CLASSIFICATION_TYPE": "U", "NORAD_CAT_ID": 34425, "ELEMENT_SET_NO": 999, "REV_AT_EPOCH": 88617, "BSTAR": 0.0014896001, "MEAN_MOTION_DOT": 7.489e-05, "MEAN_MOTION_DDOT": 0}, "tle": {"line1": "1 34425U 93036RS  25338.30065323  .00007489  00000+0  14896-2 0  9999", "line2": "2 34425  74.0207  70.6899 0025436 198.9722 161.0499 14.62048333886171"}}, "geometry": {"type": "Point", "coordinates": [-115.05940017557373, 16.610722325543247]}}, {"type": "Feature", "properties": {"norad_id": 34429, "name": "COSMOS 2251 DEB", "group": "cosmos-2251-debris", "lat": 27.462861892470073, "lon": -3.2400421353936535, "alt_km": 453.34336422360866, "timestamp": "2025-12-04T17:48:40.559156+00:00", "meta": {"OBJECT_NAME": "COSMOS 2251 DEB", "OBJECT_ID": "1993-036RW", "EPOCH": "2025-12-03T20:54:28.656864", "MEAN_MOTION": 15.37130972, "ECCENTRICITY": 0.00057787, "INCLINATION": 73.973, "RA_OF_ASC_NODE": 187.2334, "ARG_OF_PERICENTER": 40.3696, "MEAN_ANOMALY": 332.4742, "EPHEMERIS_TYPE": 0, "CLASSIFICATION_TYPE": "U", "NORAD_CAT_ID": 34429, "ELEMENT_SET_NO": 999, "REV_AT_EPOCH": 89312, "BSTAR": 0.0076414623, "MEAN_MOTION_DOT": 0.0028878, "MEAN_MOTION_DDOT": 0}, "tle": {"line1": "1 34429U 93036RW  25337.87116501  .00288780  00000+0  76415-2 0  9999", "line2": "2 34429  73.9730 187.2334 0005778  40.3696 332.4742 15.37130972893122"}}, "geometry": {"type": "Point", "coordinates": [-3.2400421353936535, 27.462861892470073]}}, {"type": "Feature", "properties": {"norad_id": 34430, "name": "COSMOS 2251 DEB", "group": "cosmos-2251-debris", "lat": -48.10946856912045, "lon": 156.71028443330087, "alt_km": 806.268331187126, "timestamp": "2025-12-04T17:48:40.559166+00:00", "meta": {"OBJECT_NAME": "COSMOS 2251 DEB", "OBJECT_ID": "1993-036RX", "EPOCH": "2025-12-04T00:03:56.040480", "MEAN_MOTION": 14.39589148, "ECCENTRICITY": 0.00599246, "INCLINATION": 74.0511, "RA_OF_ASC_NODE": 319.4823, "ARG_OF_PERICENTER": 31.3534, "MEAN_ANOMALY": 329.117, "EPHEMERIS_TYPE": 0, "CLASSIFICATION_TYPE": "U", "NORAD_CAT_ID": 34430, "ELEMENT_SET_NO": 999, "REV_AT_EPOCH": 87829, "BSTAR": 0.00082100269, "MEAN_MOTION_DOT": 2.594e-05, "MEAN_MOTION_DDOT": 0}, "tle": {"line1": "1 34430U 93036RX  25338.00273195  .00002594  00000+0  82100-3 0  9996", "line2": "2 34430  74.0511 319.4823 0059924  31.3534 329.1170 14.39589148878291"}}, "geometry": {"type": "Point", "coordinates": [156.71028443330087, -48.10946856912045]}}, {"type": "Feature", "properties": {"norad_id": 34431, "name": "COSMOS 2251 DEB", "group": "cosmos-2251-debris", "lat": 73.0804914295619, "lon": -100.50035302154942, "alt_km": 791.0813222460874, "timestamp": "2025-12-04T17:48:40.559176+00:00", "meta": {"OBJECT_NAME": "COSMOS 2251 DEB", "OBJECT_ID": "1993-036RY", "EPOCH": "2025-12-04T00:36:36.467712", "MEAN_MOTION": 14.2873436, "ECCENTRICITY": 0.00687027, "INCLINATION": 74.0741, "RA_OF_ASC_NODE": 190.9722, "ARG_OF_PERICENTER": 179.0094, "MEAN_ANOMALY": 181.1205, "EPHEMERIS_TYPE": 0, "CLASSIFICATION_TYPE": "U", "NORAD_CAT_ID": 34431, "ELEMENT_SET_NO": 999, "REV_AT_EPOCH": 87018, "BSTAR": 0.00094447468, "MEAN_MOTION_DOT": 2.413e-05, "MEAN_MOTION_DDOT": 0}, "tle": {"line1": "1 34431U 93036RY  25338.02542208  .00002413  00000+0  94447-3 0  9990", "line2": "2 34431  74.0741 190.9722 0068702 179.0094 181.1205 14.28734360870183"}}, "geometry": {"type": "Point", "coordinates": [-100.50035302154942, 73.0804914295619]}}]}